1 24873U 97034E   25031.45324397  .00617895  16247-3  14052-2 0  9998
2 24873  86.3615 171.9134 0005826 308.6690  51.4073 15.97487003510699
1 24903U 97043A   25031.43185434  .00001124  00000-0  37315-3 0  9994
2 24903  86.4012 168.0220 0002024  99.6041 260.5385 14.36947517437108
1 24907U 97043E   25031.45873199  .00000992  00000-0  33658-3 0  9990
2 24907  86.4016 171.4270 0002059  92.7864 267.3568 14.35782558437158
1 24925U 97048A   25031.53172192  .00001073  00000-0  11749-3 0  9997
2 24925  86.3363 198.4485 0004369 272.6480  87.4245 14.86766108484826
1 24926U 97048B   25031.53847287  .00001047  00000-0  11527-3 0  9997
2 24926  86.3362 200.0267 0005267 288.9150  71.1503 14.86519683484603
1 24944U 97051A   25031.52867717  .00001090  00000-0  36701-3 0  9999
2 24944  86.3973 201.1500 0002009  84.9836 275.1590 14.36251361433651
1 24946U 97051C   25031.71189536  .00000698  00000-0  23959-3 0  9992
2 24946  86.3891 200.3235 0008686 150.9784 209.1896 14.34744642433182
1 24948U 97051E   25031.52098846  .00000978  00000-0  32222-3 0  9990
2 24948  86.3983 198.7487 0002132 103.0570 257.0866 14.37189372434217
